{"type": "Feature", "properties": {"name": "Comune di Ascoli Piceno", "source": "OpenStreetMap relation 42176"}, "geometry": {"type": "MultiPolygon", "coordinates": [[[[13.4190748, 42.8081041], [13.4192178, 42.807752], [13.4193117, 42.8074827], [13.419502, 42.807194], [13.419941, 42.8072626], [13.4204928, 42.807284], [13.4209579, 42.8072052], [13.4213124, 42.8071172], [13.4216601, 42.8069777], [13.422011, 42.8067121], [13.4222313, 42.8065865], [13.4225301, 42.8064039], [13.4225818, 42.806346], [13.4226801, 42.806236], [13.4227223, 42.8060993], [13.422898, 42.8059485], [13.4231674, 42.8058255], [13.4233675, 42.8057593], [13.4236948, 42.8055485], [13.424028, 42.8057202], [13.4243203, 42.8057899], [13.4247691, 42.8058671], [13.4251618, 42.8058023], [13.4253664, 42.8055423], [13.4254083, 42.8053156], [13.4254972, 42.8051906], [13.4257188, 42.8051685], [13.4261618, 42.8049938], [13.4264356, 42.8047626], [13.4265874, 42.8045767], [13.4266675, 42.804371], [13.4269558, 42.8040853], [13.4272735, 42.804082], [13.4277869, 42.8040801], [13.4283988, 42.8040879], [13.4290468, 42.8040448], [13.4294337, 42.8038137], [13.429744, 42.8036216], [13.4299622, 42.8035951], [13.4302446, 42.8036112], [13.4308788, 42.8037171], [13.4312107, 42.8036142], [13.4316449, 42.8033588], [13.4321287, 42.803115], [13.4325595, 42.8029407], [13.4329915, 42.8027844], [13.4333526, 42.8026624], [13.4335567, 42.8027805], [13.4336978, 42.8030001], [13.4337377, 42.8032596], [13.433732, 42.803521], [13.4337147, 42.8037917], [13.4335504, 42.8038881], [13.4335381, 42.8038965], [13.4333405, 42.8040313], [13.433238, 42.8042649], [13.4333677, 42.8044534], [13.4336319, 42.8046007], [13.4339807, 42.8047763], [13.434296, 42.8049531], [13.4345839, 42.8052165], [13.4345285, 42.8054257], [13.4345237, 42.805615], [13.4347018, 42.8057972], [13.4347433, 42.8061197], [13.4346895, 42.8062658], [13.4347098, 42.8064631], [13.4347645, 42.8066725], [13.4348855, 42.8068254], [13.4349912, 42.8069789], [13.435083, 42.8071509], [13.4351384, 42.8073693], [13.4351343, 42.8075675], [13.435326, 42.8077694], [13.4356204, 42.8077827], [13.4361212, 42.8077318], [13.4365762, 42.8077254], [13.4370009, 42.8077652], [13.437438, 42.8079778], [13.4375309, 42.8081227], [13.4378112, 42.8081523], [13.4382369, 42.8082484], [13.4386603, 42.8083985], [13.4389617, 42.8085938], [13.4391029, 42.8087729], [13.4390262, 42.8088974], [13.4387694, 42.8089389], [13.4385971, 42.8090086], [13.4383495, 42.8090948], [13.4381273, 42.8091935], [13.4379678, 42.8092717], [13.437732, 42.8093934], [13.4375688, 42.8094627], [13.4372866, 42.8095772], [13.4369423, 42.8096356], [13.4366356, 42.8096228], [13.4362679, 42.80961], [13.4358653, 42.8096234], [13.4355091, 42.8096867], [13.435225, 42.8097743], [13.4349174, 42.8098763], [13.4348643, 42.8100314], [13.4349203, 42.8102588], [13.4349887, 42.8104452], [13.4350898, 42.8107474], [13.4352087, 42.8109994], [13.4353134, 42.8111799], [13.4354289, 42.8114275], [13.4355439, 42.8117516], [13.435556, 42.8122193], [13.435564, 42.8124171], [13.4356203, 42.8125635], [13.4357633, 42.8127245], [13.4359169, 42.8128626], [13.4360819, 42.8131173], [13.4358573, 42.8133961], [13.4355761, 42.813398], [13.4350725, 42.8134085], [13.4345341, 42.8134474], [13.4340619, 42.8132992], [13.4335871, 42.8132006], [13.4332044, 42.8132784], [13.4327617, 42.8133721], [13.4322875, 42.8132825], [13.4317638, 42.8131407], [13.4314225, 42.813199], [13.4313167, 42.8133877], [13.4312513, 42.8135838], [13.430996, 42.8135622], [13.4303232, 42.8135162], [13.4297384, 42.8134624], [13.4289085, 42.8134], [13.4281651, 42.8133073], [13.4278256, 42.8131764], [13.4271245, 42.8129064], [13.4265289, 42.8126999], [13.4260225, 42.8124584], [13.4254935, 42.8125419], [13.4252199, 42.8121789], [13.4248435, 42.8117028], [13.4244679, 42.8115373], [13.4238939, 42.8114199], [13.4233705, 42.8113682], [13.4228466, 42.8113524], [13.422454, 42.8112911], [13.4214059, 42.8111696], [13.4209756, 42.8107518], [13.4207439, 42.810718], [13.4205415, 42.8105368], [13.4204099, 42.8104068], [13.4202305, 42.810335], [13.4199435, 42.8103393], [13.4196545, 42.8103168], [13.4193269, 42.8102236], [13.4192468, 42.8100872], [13.4193832, 42.8099424], [13.4197303, 42.8099222], [13.4199525, 42.8099519], [13.4202285, 42.8099209], [13.4201595, 42.8096828], [13.420092, 42.8095503], [13.4203853, 42.8094624], [13.4206539, 42.8094566], [13.4209867, 42.8094077], [13.4214294, 42.809314], [13.4217139, 42.809231], [13.4219706, 42.8091445], [13.4221725, 42.8089747], [13.4219792, 42.8087931], [13.4217446, 42.8087189], [13.4213577, 42.8087811], [13.421024, 42.808902], [13.4207382, 42.8090526], [13.4204183, 42.80911], [13.4200519, 42.8091602], [13.4197297, 42.8092717], [13.4193251, 42.8093842], [13.4193821, 42.8090263], [13.4196087, 42.8087317], [13.4197489, 42.8085552], [13.4197886, 42.8083826], [13.4198068, 42.8081658], [13.4190748, 42.8081041]]], [[[13.4589132, 42.8235457], [13.459008, 42.823398], [13.459084, 42.8232645], [13.4592253, 42.8229754], [13.4593158, 42.8227467], [13.4593663, 42.8222586], [13.4593717, 42.8219523], [13.4593172, 42.8216618], [13.4594558, 42.8215484], [13.4597556, 42.8213386], [13.4599577, 42.8210876], [13.4601108, 42.8207935], [13.4602161, 42.8205148], [13.4602862, 42.8201295], [13.4601933, 42.8198585], [13.4601875, 42.8196516], [13.4605879, 42.8192669], [13.4608793, 42.8189404], [13.461203, 42.8186802], [13.4613203, 42.8184415], [13.4613034, 42.8181225], [13.4612286, 42.8177203], [13.4612131, 42.8172933], [13.4613429, 42.8169731], [13.4615672, 42.8167753], [13.4619042, 42.816573], [13.4623874, 42.8163201], [13.4626992, 42.8160648], [13.4629776, 42.8157704], [13.4630969, 42.815347], [13.4630288, 42.8150391], [13.46283, 42.8147408], [13.4625336, 42.8143607], [13.4623677, 42.8140521], [13.4622927, 42.8136904], [13.4623537, 42.8132648], [13.4624807, 42.8129898], [13.462669, 42.8128023], [13.4636811, 42.8114483], [13.4636993, 42.8112766], [13.463732, 42.8109242], [13.4638403, 42.8105598], [13.4639966, 42.810099], [13.4640524, 42.8098133], [13.4641902, 42.8096458], [13.4643789, 42.8094224], [13.4645439, 42.8092089], [13.4646474, 42.8089482], [13.4647675, 42.8085789], [13.4648466, 42.8083192], [13.4649513, 42.8080338], [13.4649575, 42.8078647], [13.4649616, 42.8076665], [13.4649444, 42.8074286], [13.4650324, 42.8072496], [13.4651335, 42.8070836], [13.4652157, 42.8068238], [13.4652821, 42.8065151], [13.4652895, 42.8062357], [13.4652857, 42.8059297], [13.4653402, 42.805752], [13.4655807, 42.8056954], [13.4659691, 42.8057409], [13.4662946, 42.8057192], [13.4664452, 42.8055603], [13.4665724, 42.8052897], [13.4666768, 42.8050425], [13.466832, 42.8047349], [13.4670336, 42.8044794], [13.4674071, 42.8042757], [13.4677881, 42.8040898], [13.4681963, 42.8039433], [13.4686087, 42.8038979], [13.4689538, 42.8039362], [13.4691602, 42.8040001], [13.4694636, 42.8036304], [13.4694959, 42.8033568], [13.4694343, 42.802927], [13.4692952, 42.8026083], [13.4690797, 42.8023332], [13.468853, 42.8021575], [13.4687686, 42.8020887], [13.4684783, 42.80192], [13.4681707, 42.8018938], [13.4676698, 42.8019832], [13.4672877, 42.8021106], [13.467076, 42.8022269], [13.4667901, 42.8024587], [13.4665534, 42.8026097], [13.4661927, 42.8026936], [13.4658466, 42.8025991], [13.465658, 42.8024219], [13.4652938, 42.802139], [13.4648944, 42.8019836], [13.4645783, 42.8019239], [13.4640283, 42.8018419], [13.4635568, 42.8017038], [13.4633442, 42.8013396], [13.4632885, 42.8007363], [13.4634687, 42.8002251], [13.4637853, 42.7998256], [13.4641504, 42.7995053], [13.4646594, 42.7991883], [13.4651272, 42.7990214], [13.4656579, 42.7987936], [13.4661139, 42.7986317], [13.4664719, 42.7985097], [13.4668456, 42.798225], [13.4669389, 42.7978657], [13.4670673, 42.7976536], [13.4671137, 42.7974493], [13.4671376, 42.797356], [13.4673158, 42.7971578], [13.467361, 42.7971065], [13.4675863, 42.7969671], [13.4678624, 42.7967267], [13.4679189, 42.7963239], [13.4678571, 42.7958897], [13.46771, 42.7954182], [13.4675483, 42.7950824], [13.4672838, 42.7948902], [13.4668847, 42.7945682], [13.4666861, 42.7943148], [13.466537, 42.7939425], [13.4665176, 42.7936732], [13.4664762, 42.7933957], [13.46652, 42.7930699], [13.466496, 42.7921435], [13.4663596, 42.7917347], [13.4663957, 42.7912606], [13.4664504, 42.7909163], [13.4664867, 42.7904873], [13.4664812, 42.7901994], [13.4665021, 42.7899375], [13.4663894, 42.7895187], [13.4661759, 42.7891849], [13.4659026, 42.7888693], [13.465555, 42.7885835], [13.4652929, 42.7883821], [13.4649026, 42.7882668], [13.4644192, 42.788216], [13.4635711, 42.7882783], [13.4632371, 42.7884354], [13.4629398, 42.7886361], [13.4626276, 42.7888419], [13.4622561, 42.7889869], [13.4618784, 42.7890467], [13.4613955, 42.7891736], [13.4611132, 42.7892431], [13.460783, 42.789283], [13.4605204, 42.7895409], [13.4603631, 42.7899882], [13.4601583, 42.7902843], [13.4599223, 42.790487], [13.4597088, 42.7905787], [13.4595943, 42.7903468], [13.4595683, 42.7899427], [13.4595789, 42.7895371], [13.4596847, 42.7890963], [13.4597804, 42.7887279], [13.4598971, 42.7884803], [13.4600997, 42.7882383], [13.4602651, 42.7879888], [13.4602579, 42.787719], [13.4601179, 42.7874723], [13.4600126, 42.7872829], [13.459966, 42.7871451], [13.4608938, 42.7863211], [13.4613295, 42.7859215], [13.4610758, 42.7857919], [13.4608726, 42.7856017], [13.4608439, 42.7852877], [13.4611737, 42.7847752], [13.4615261, 42.7844058], [13.4618838, 42.7842388], [13.4623541, 42.7841079], [13.4627378, 42.7839623], [13.4631546, 42.783766], [13.4635399, 42.7835574], [13.4639255, 42.7833532], [13.4641532, 42.7830788], [13.4642465, 42.7827195], [13.4643906, 42.7823447], [13.4643623, 42.7819092], [13.464336, 42.7815861], [13.4641751, 42.7811332], [13.463996, 42.7808521], [13.4637235, 42.7806331], [13.4633727, 42.7803858], [13.46294, 42.7801911], [13.4626728, 42.780044], [13.4624356, 42.7798056], [13.4623058, 42.7796576], [13.4624206, 42.7789599], [13.4626812, 42.7786751], [13.462859, 42.7784701], [13.4631912, 42.7783311], [13.4634525, 42.7782264], [13.463741, 42.7781588], [13.464153, 42.77828], [13.4646393, 42.778117], [13.4649584, 42.7776679], [13.4651142, 42.7773287], [13.4653576, 42.7768465], [13.4654578, 42.7765837], [13.4655393, 42.7764005], [13.4657083, 42.7760315], [13.4658622, 42.7756653], [13.4659168, 42.7754471], [13.4656021, 42.7753199], [13.4654233, 42.7751288], [13.4655315, 42.7746789], [13.4656522, 42.7743186], [13.4658167, 42.774015], [13.4660395, 42.7738848], [13.466423, 42.7737798], [13.4666831, 42.773531], [13.4668515, 42.7732813], [13.4669928, 42.7729517], [13.4672233, 42.7725465], [13.4674144, 42.7722735], [13.4676869, 42.7720693], [13.4679116, 42.7718804], [13.4681654, 42.7718412], [13.4700394, 42.7719007], [13.4705321, 42.7719535], [13.471053, 42.7719014], [13.47116, 42.7718907], [13.4718102, 42.771926], [13.4724087, 42.7720061], [13.4732102, 42.7721053], [13.4739693, 42.7721251], [13.4745686, 42.7720904], [13.4752644, 42.7720789], [13.4757594, 42.7720798], [13.4762435, 42.7720991], [13.4766687, 42.7721499], [13.4771444, 42.7722213], [13.4772647, 42.7722797], [13.4773597, 42.7723255], [13.4775408, 42.7725074], [13.4778578, 42.7729204], [13.4782032, 42.7728371], [13.4785859, 42.7727636], [13.4791026, 42.7727276], [13.4795984, 42.7728229], [13.4801815, 42.7729441], [13.4807629, 42.7731689], [13.4813919, 42.7734594], [13.4818626, 42.7737155], [13.4822947, 42.7740722], [13.482624, 42.7745275], [13.4830448, 42.7748126], [13.4833918, 42.7751321], [13.4835426, 42.7754863], [13.4836573, 42.7758464], [13.483904, 42.7761743], [13.4843337, 42.7765176], [13.4847821, 42.7768241], [13.4851195, 42.777054], [13.4852711, 42.7772911], [13.4855304, 42.7777086], [13.4858985, 42.7781083], [13.4865382, 42.7784613], [13.4870231, 42.7786178], [13.4876909, 42.7788527], [13.4883042, 42.7792203], [13.4888824, 42.7796522], [13.4892625, 42.780092], [13.4898174, 42.7804123], [13.4906277, 42.7807586], [13.491097, 42.7809517], [13.4914019, 42.7811108], [13.4919069, 42.7814601], [13.4922976, 42.7818769], [13.4929492, 42.7821394], [13.4935523, 42.7821134], [13.4939333, 42.7820151], [13.4943634, 42.782005], [13.4949787, 42.7821901], [13.4954353, 42.7823342], [13.4958103, 42.7822384], [13.4962781, 42.7820737], [13.4967257, 42.7820944], [13.4968912, 42.7821013], [13.4974571, 42.7821511], [13.4979276, 42.7821078], [13.4984243, 42.781879], [13.4989325, 42.7815123], [13.4994283, 42.7813127], [13.4999044, 42.7813053], [13.500097, 42.7814755], [13.5004936, 42.7817615], [13.5009633, 42.7818758], [13.5012103, 42.7818683], [13.5012183, 42.7805895], [13.5011597, 42.7803713], [13.5010699, 42.7801452], [13.5009332, 42.779777], [13.5008796, 42.7794595], [13.5009216, 42.7791967], [13.5007571, 42.7788656], [13.5006832, 42.7783958], [13.500624, 42.7780425], [13.5010721, 42.7779866], [13.5017821, 42.7780014], [13.5021895, 42.7778481], [13.5025017, 42.7775184], [13.5028037, 42.7771329], [13.5029691, 42.7768022], [13.5032482, 42.7764806], [13.5035242, 42.7761996], [13.5038157, 42.7761319], [13.5040039, 42.7761582], [13.504309, 42.7760674], [13.5046951, 42.7757889], [13.5052115, 42.7755698], [13.5054739, 42.7757008], [13.506791, 42.776314], [13.5074758, 42.7773493], [13.5079018, 42.7784174], [13.5089078, 42.779269], [13.5092704, 42.779948], [13.5087065, 42.7810382], [13.5086681, 42.782128], [13.5094428, 42.7829494], [13.509744, 42.7830904], [13.5103743, 42.7833841], [13.5119395, 42.7838547], [13.5121157, 42.7839916], [13.5128274, 42.78455], [13.5136617, 42.7849301], [13.5144833, 42.7853647], [13.5154573, 42.7860881], [13.5160355, 42.786797], [13.5166201, 42.7875355], [13.5171282, 42.7882807], [13.5170953, 42.788502], [13.5170107, 42.7890799], [13.5168139, 42.7896087], [13.5168447, 42.7896577], [13.517058, 42.7900222], [13.5175698, 42.7902946], [13.5176377, 42.7904], [13.5178932, 42.7907894], [13.5182608, 42.7910325], [13.5184039, 42.7910889], [13.5192909, 42.791433], [13.5206117, 42.7919018], [13.5219907, 42.7925405], [13.5221014, 42.7926021], [13.5230866, 42.7931296], [13.5238047, 42.7937044], [13.5240361, 42.793891], [13.5249429, 42.7942974], [13.525969, 42.7943288], [13.5271602, 42.7946957], [13.5280017, 42.7947513], [13.5291145, 42.7953419], [13.5294616, 42.7957057], [13.5297334, 42.7959893], [13.5300691, 42.7967772], [13.5302525, 42.7978233], [13.5305468, 42.7983777], [13.5308502, 42.7989746], [13.5310382, 42.7997695], [13.5312937, 42.8003581], [13.5316831, 42.8011277], [13.5318033, 42.8020597], [13.5318075, 42.802163], [13.5318497, 42.8032384], [13.5319011, 42.8041491], [13.5318293, 42.8051119], [13.5319713, 42.8058614], [13.5321846, 42.8066463], [13.5329563, 42.8071244], [13.5330355, 42.8072186], [13.5335389, 42.8078171], [13.5336468, 42.8084565], [13.5332116, 42.8092345], [13.5326152, 42.810109], [13.5324167, 42.8113233], [13.5325409, 42.8122265], [13.5326003, 42.8123581], [13.5330293, 42.8133022], [13.5334699, 42.8138508], [13.5339161, 42.8144421], [13.5340173, 42.8145755], [13.5342045, 42.8148221], [13.5343323, 42.8154735], [13.5343893, 42.8157601], [13.5344719, 42.8165683], [13.5344999, 42.8166499], [13.5350033, 42.816797], [13.5363603, 42.8167487], [13.5371962, 42.8165985], [13.5384379, 42.8168137], [13.5391429, 42.8168774], [13.5399163, 42.8169478], [13.5414422, 42.8165908], [13.542456, 42.8166563], [13.5429229, 42.8169787], [13.5430173, 42.8169738], [13.5431576, 42.8169686], [13.5436454, 42.81695], [13.5447476, 42.8163885], [13.5455804, 42.815904], [13.5459478, 42.8152873], [13.5461385, 42.8144695], [13.5464885, 42.8136363], [13.5467306, 42.8131403], [13.5468489, 42.8129028], [13.5475031, 42.8121104], [13.5477114, 42.8119816], [13.5486557, 42.8114039], [13.5488777, 42.8112259], [13.5494672, 42.8107571], [13.5500885, 42.8103509], [13.5503633, 42.8101374], [13.550293, 42.8093895], [13.5510499, 42.8084985], [13.5511714, 42.8083482], [13.551843, 42.8075182], [13.5525504, 42.8065379], [13.5532455, 42.8055559], [13.5540505, 42.8050703], [13.5546523, 42.8046571], [13.5550311, 42.8043976], [13.5559941, 42.8041499], [13.5566153, 42.8039615], [13.5568314, 42.803897], [13.5570253, 42.8039606], [13.5575235, 42.8041226], [13.5576703, 42.8045388], [13.5582006, 42.8049329], [13.5589021, 42.8047451], [13.5598231, 42.8045925], [13.5601251, 42.8044202], [13.5601958, 42.8043798], [13.5602543, 42.8043457], [13.5609, 42.8041269], [13.5610207, 42.8040855], [13.5617242, 42.8035561], [13.5618548, 42.803458], [13.5624317, 42.8033213], [13.5634452, 42.8033866], [13.5641783, 42.8035048], [13.5647302, 42.803943], [13.5658034, 42.8040296], [13.5665625, 42.8040026], [13.5671121, 42.8040832], [13.5675019, 42.8041406], [13.5687884, 42.8034725], [13.5688674, 42.8033323], [13.5693503, 42.8024698], [13.5697712, 42.8016292], [13.5699721, 42.8014512], [13.570159, 42.8012901], [13.5703116, 42.8011809], [13.5703795, 42.8011504], [13.5704465, 42.8010752], [13.5706937, 42.8008754], [13.5709252, 42.8007648], [13.5714613, 42.8005071], [13.5722476, 42.8003732], [13.5725245, 42.8003764], [13.5729191, 42.8003812], [13.5733952, 42.8004601], [13.5735535, 42.8004875], [13.5736994, 42.8005317], [13.5737724, 42.8005541], [13.5747046, 42.8008154], [13.5749828, 42.8009436], [13.5752944, 42.8010897], [13.5754169, 42.8011367], [13.5760453, 42.8013871], [13.5767021, 42.8015678], [13.5770984, 42.8016086], [13.5779449, 42.8016283], [13.5787299, 42.8016475], [13.5795801, 42.8018813], [13.5804155, 42.8022879], [13.5810155, 42.8027545], [13.5813054, 42.803471], [13.5810693, 42.8041433], [13.5813377, 42.8050192], [13.581872, 42.8054492], [13.582759, 42.8062622], [13.5829321, 42.8064238], [13.583417, 42.8068727], [13.5841812, 42.8075046], [13.5842815, 42.8075876], [13.584998, 42.807682], [13.585257, 42.8077161], [13.5856702, 42.807847], [13.5862343, 42.8077455], [13.5871619, 42.8076314], [13.5883025, 42.8076445], [13.5885808, 42.8074699], [13.5886631, 42.8074162], [13.5891147, 42.8069715], [13.5898831, 42.806513], [13.5905462, 42.8063862], [13.5909083, 42.8065698], [13.5911971, 42.8067313], [13.5913433, 42.80681], [13.59148, 42.8067861], [13.5917489, 42.8067341], [13.5922931, 42.8067851], [13.5925291, 42.8068062], [13.5928198, 42.8067073], [13.5930021, 42.8066427], [13.5932205, 42.8065669], [13.5932867, 42.8063459], [13.5940393, 42.8060039], [13.5946726, 42.8060766], [13.594918, 42.8061047], [13.5959477, 42.8063514], [13.5960663, 42.8063798], [13.5963105, 42.8064247], [13.596457, 42.806452], [13.5971093, 42.8065737], [13.5979679, 42.8064041], [13.598909, 42.8064607], [13.5996953, 42.8063255], [13.6008675, 42.8063864], [13.6015164, 42.8063569], [13.601626, 42.8064287], [13.6019137, 42.8066233], [13.602747, 42.807121], [13.6035373, 42.8073277], [13.6039514, 42.8075448], [13.6041909, 42.8076694], [13.6045419, 42.8079823], [13.6050047, 42.8083985], [13.6054194, 42.8086318], [13.6055486, 42.808704], [13.6057821, 42.8089066], [13.6060649, 42.8091514], [13.606156, 42.8091657], [13.6066378, 42.8092296], [13.6070034, 42.8093161], [13.6071419, 42.8096583], [13.6075862, 42.8100421], [13.6082605, 42.810518], [13.6088897, 42.8107976], [13.6096867, 42.810663], [13.6100416, 42.8106667], [13.6107621, 42.8107558], [13.6115861, 42.8105324], [13.6124615, 42.8102179], [13.6131937, 42.8103009], [13.6136658, 42.8105035], [13.6137521, 42.8105554], [13.6139926, 42.8107053], [13.6144637, 42.8109552], [13.6148827, 42.811348], [13.6151809, 42.8116566], [13.6156799, 42.8117895], [13.6159859, 42.8118258], [13.6162291, 42.8118574], [13.6165097, 42.8119628], [13.6167512, 42.8120535], [13.617158, 42.8124456], [13.6176745, 42.8128748], [13.6181694, 42.8131159], [13.6184356, 42.8132627], [13.6185596, 42.8134156], [13.6175395, 42.8134824], [13.6172474, 42.8135399], [13.6171086, 42.8135673], [13.6166886, 42.8137148], [13.6165046, 42.8138303], [13.6162022, 42.8141216], [13.6159531, 42.8143883], [13.6157182, 42.8145598], [13.6154574, 42.8146289], [13.615248, 42.8147319], [13.6149882, 42.8147739], [13.6147193, 42.8148162], [13.6145791, 42.81511], [13.614648, 42.8153368], [13.6147235, 42.8157344], [13.6146579, 42.8160026], [13.6146237, 42.8163641], [13.614827, 42.81659], [13.6151565, 42.8166217], [13.6155573, 42.8167901], [13.6158683, 42.8171061], [13.6158318, 42.8174373], [13.6157879, 42.817546], [13.615719, 42.8177289], [13.6159084, 42.8180543], [13.6162803, 42.8183274], [13.616532, 42.8186278], [13.6167354, 42.8188132], [13.6170384, 42.8189405], [13.617363, 42.8191524], [13.61758, 42.8193147], [13.6180414, 42.8194761], [13.618637, 42.8196726], [13.6188398, 42.8198085], [13.6185945, 42.8198409], [13.6182894, 42.8198488], [13.617948, 42.8198626], [13.6174791, 42.8199715], [13.617045, 42.8202187], [13.6167691, 42.8204954], [13.6164858, 42.8206734], [13.6160623, 42.820776], [13.615752, 42.8206738], [13.6155099, 42.8204607], [13.6151666, 42.8203261], [13.6149254, 42.8204123], [13.6149041, 42.8207418], [13.6149701, 42.8210947], [13.615097, 42.8215668], [13.615244, 42.8219795], [13.6153968, 42.8222254], [13.615466, 42.8224972], [13.615336, 42.8228041], [13.615168, 42.823216], [13.6150882, 42.8234173], [13.6150138, 42.8236093], [13.6152197, 42.823664], [13.6155583, 42.8237764], [13.6159713, 42.8240253], [13.6162542, 42.8243335], [13.6164661, 42.8243047], [13.6168372, 42.8242784], [13.6170656, 42.8242669], [13.6176653, 42.824272], [13.6180314, 42.8243022], [13.6185644, 42.8244787], [13.6190371, 42.8246667], [13.6194857, 42.8248601], [13.6198762, 42.8249299], [13.620522, 42.8250613], [13.6209236, 42.8252386], [13.6211984, 42.8255201], [13.6215074, 42.8258497], [13.6218421, 42.8261963], [13.6221788, 42.8265293], [13.6226233, 42.8268714], [13.6231044, 42.8271716], [13.6235927, 42.8273229], [13.6239909, 42.8274553], [13.6245145, 42.8275872], [13.6250287, 42.8275934], [13.6254551, 42.8276526], [13.6256491, 42.8278338], [13.6256188, 42.8280421], [13.6255135, 42.8283525], [13.6253362, 42.8286388], [13.6251588, 42.828844], [13.6249745, 42.8289955], [13.6247633, 42.8291571], [13.6245627, 42.8292958], [13.624287, 42.8296176], [13.6241831, 42.8299054], [13.6241517, 42.8302218], [13.624244, 42.8304746], [13.6244688, 42.8306186], [13.6253244, 42.8304871], [13.6259055, 42.8306099], [13.6261594, 42.8306942], [13.6262799, 42.8308333], [13.6264078, 42.8310307], [13.6265638, 42.8312765], [13.626738, 42.8316026], [13.6267815, 42.8318979], [13.62674, 42.8321607], [13.6266749, 42.8323118], [13.6265609, 42.832465], [13.6263721, 42.8326797], [13.6263459, 42.8328203], [13.626401, 42.8329847], [13.6265089, 42.8332009], [13.626757, 42.8334924], [13.6270228, 42.8336932], [13.6273011, 42.833898], [13.627591, 42.8340528], [13.62787, 42.8341451], [13.6280753, 42.8342313], [13.6281934, 42.8344201], [13.6282075, 42.8345275], [13.6282257, 42.8346889], [13.6283661, 42.8348902], [13.6285104, 42.8350194], [13.6286353, 42.8350954], [13.6288724, 42.8352389], [13.6292347, 42.8354222], [13.6296371, 42.8355275], [13.6299284, 42.8356192], [13.6302207, 42.8357244], [13.6304869, 42.8358082], [13.6307968, 42.8358631], [13.6310506, 42.8358213], [13.6312857, 42.8357353], [13.6315687, 42.8356743], [13.631805, 42.8356444], [13.6322821, 42.8357264], [13.6327768, 42.8356759], [13.6330111, 42.8357013], [13.6330788, 42.8358899], [13.6329195, 42.8359886], [13.6326355, 42.8360767], [13.6326798, 42.8362189], [13.6328719, 42.8362516], [13.6332442, 42.8362005], [13.6335379, 42.8362021], [13.6338327, 42.8361362], [13.634163, 42.8360957], [13.6343026, 42.8360811], [13.6344122, 42.8360744], [13.6346759, 42.836165], [13.6349539, 42.8363653], [13.6351449, 42.8365466], [13.6354567, 42.836831], [13.6356981, 42.8370328], [13.6359128, 42.8372042], [13.6365316, 42.8375437], [13.6366878, 42.8376082], [13.6369668, 42.8377196], [13.6372743, 42.8379278], [13.6374104, 42.8380102], [13.6378239, 42.8383063], [13.6382794, 42.8385883], [13.638877, 42.8389544], [13.6390871, 42.8390594], [13.6392789, 42.8391472], [13.6395432, 42.839123], [13.6397843, 42.8392392], [13.6400649, 42.8393921], [13.6406457, 42.8396319], [13.6408792, 42.8397282], [13.6411158, 42.8395385], [13.6411734, 42.8394912], [13.6416035, 42.8394354], [13.6419112, 42.8394184], [13.6424449, 42.839399], [13.6428896, 42.8394147], [13.6432431, 42.8394386], [13.6436735, 42.8394684], [13.6440645, 42.8393804], [13.6443745, 42.8392328], [13.6448307, 42.8389937], [13.6450048, 42.8388696], [13.6451435, 42.8387199], [13.6455765, 42.8384997], [13.6460235, 42.8382609], [13.6466157, 42.8380433], [13.6471331, 42.8378872], [13.6476484, 42.8377852], [13.6483863, 42.8376337], [13.648842, 42.8375116], [13.6491514, 42.8373549], [13.6496231, 42.8369981], [13.6497983, 42.836847], [13.6500348, 42.8366168], [13.6503184, 42.8364837], [13.6506738, 42.8364512], [13.6514601, 42.8364147], [13.6526011, 42.8362962], [13.6527119, 42.8361431], [13.653086, 42.8359118], [13.6534546, 42.8358113], [13.6539699, 42.8357093], [13.6542314, 42.8355681], [13.6545269, 42.8353895], [13.6548108, 42.8353014], [13.6552295, 42.8352168], [13.6555246, 42.8351958], [13.6558678, 42.8351638], [13.6562005, 42.8350332], [13.6566161, 42.8349892], [13.6569191, 42.8349521], [13.6573668, 42.8350082], [13.657547, 42.8349648], [13.6577195, 42.8348587], [13.6580525, 42.8347731], [13.6586387, 42.83472], [13.6589116, 42.8347291], [13.6592392, 42.8348148], [13.65942, 42.8349424], [13.6594396, 42.8351217], [13.6593763, 42.8352954], [13.6592749, 42.8354525], [13.65922, 42.8356168], [13.659203, 42.8358786], [13.6592978, 42.8361223], [13.6596422, 42.8360655], [13.6601445, 42.8359528], [13.6614994, 42.8356701], [13.6616526, 42.8357967], [13.6617854, 42.8359353], [13.6621838, 42.8361081], [13.6625056, 42.836158], [13.6630065, 42.8360678], [13.6635432, 42.8360076], [13.6641442, 42.8359876], [13.6647448, 42.8359226], [13.6657517, 42.8358094], [13.6661543, 42.8357547], [13.6665962, 42.8357749], [13.6669495, 42.8357965], [13.667146, 42.8358065], [13.6671534, 42.8359862], [13.6672937, 42.8362641], [13.6675327, 42.836108], [13.6677283, 42.8359853], [13.6679753, 42.8359347], [13.6683079, 42.8358851], [13.6687001, 42.8358533], [13.6689404, 42.8360798], [13.6691189, 42.8362976], [13.6692954, 42.8365694], [13.6694604, 42.8368508], [13.6696216, 42.8372854], [13.669752, 42.8375141], [13.6699438, 42.8377854], [13.6702778, 42.8381588], [13.6705322, 42.838207], [13.6709584, 42.8383021], [13.6711271, 42.8384302], [13.671222, 42.8385929], [13.671329, 42.8387551], [13.6713995, 42.8389187], [13.6714073, 42.8390625], [13.6713412, 42.8393218], [13.6712274, 42.839475], [13.6710644, 42.8396257], [13.67083, 42.8397208], [13.6706823, 42.8398304], [13.6705837, 42.8399829], [13.6702717, 42.8401848], [13.6700366, 42.8402709], [13.6697134, 42.8404462], [13.6695629, 42.8406819], [13.6693969, 42.8409138], [13.669073, 42.8412421], [13.6689101, 42.8413928], [13.6687488, 42.8415254], [13.6684124, 42.8417282], [13.6681762, 42.841963], [13.6680014, 42.8421592], [13.6677283, 42.8423504], [13.6674302, 42.8424931], [13.6672442, 42.8426628], [13.6671384, 42.8430047], [13.6669826, 42.8433712], [13.6669392, 42.8437286], [13.666783, 42.8442121], [13.6667169, 42.8444309], [13.6664597, 42.8445089], [13.6661246, 42.8445676], [13.6658553, 42.8446461], [13.6657634, 42.8448885], [13.6657462, 42.8449432], [13.6656694, 42.8452637], [13.6656558, 42.8453197], [13.6656391, 42.8453887], [13.6655754, 42.8456389], [13.6654716, 42.8460078], [13.6653761, 42.8464843], [13.6653832, 42.8467001], [13.6655331, 42.8469438], [13.665612, 42.8470576], [13.6656911, 42.8471737], [13.6658202, 42.847344], [13.6660343, 42.8476278], [13.6660997, 42.8476837], [13.6662454, 42.8478308], [13.666275, 42.8478522], [13.6665042, 42.8480183], [13.6667082, 42.8482485], [13.6668002, 42.8484946], [13.6668906, 42.8494497], [13.6670292, 42.849381], [13.6672359, 42.8492826], [13.6674326, 42.8491733], [13.6675462, 42.8491195], [13.6676305, 42.8490796], [13.6679059, 42.8488388], [13.6680818, 42.8486966], [13.6682173, 42.8485875], [13.6684179, 42.8484488], [13.6686883, 42.8482622], [13.6689601, 42.8481745], [13.6694259, 42.8481465], [13.6699027, 42.8481405], [13.670149, 42.8480809], [13.6703594, 42.8479913], [13.6706928, 42.8478696], [13.6709852, 42.8477316], [13.6712498, 42.8475903], [13.6714101, 42.8474847], [13.6715483, 42.8473305], [13.6717991, 42.8471267], [13.6719132, 42.8469374], [13.6720257, 42.8468068], [13.6723164, 42.8466463], [13.6727008, 42.8465518], [13.6730757, 42.8465748], [13.6733097, 42.8465539], [13.6736832, 42.8465994], [13.6740729, 42.846696], [13.6743758, 42.8467782], [13.6746417, 42.8468978], [13.6749558, 42.847047], [13.6750882, 42.8470979], [13.6752862, 42.8471686], [13.6757091, 42.8473808], [13.6760587, 42.8475556], [13.6763129, 42.8477207], [13.6765187, 42.8478136], [13.6769313, 42.84797], [13.677377, 42.8479585], [13.6777746, 42.8479985], [13.6781802, 42.8480224], [13.678704, 42.848073], [13.6808183, 42.8482835], [13.6812818, 42.8483455], [13.6816251, 42.8483945], [13.6820256, 42.8484321], [13.6823309, 42.8484646], [13.6826863, 42.848513], [13.6833179, 42.8486132], [13.6837594, 42.8487076], [13.6841602, 42.8487902], [13.6846261, 42.8488431], [13.6850802, 42.848901], [13.6855789, 42.8487816], [13.6859848, 42.8486884], [13.6863914, 42.8485637], [13.6866512, 42.8484405], [13.6869543, 42.8484033], [13.6873424, 42.8484391], [13.688255, 42.8483724], [13.6887095, 42.848356], [13.6891269, 42.8482533], [13.689583, 42.8481356], [13.6900271, 42.8480228], [13.6904079, 42.8478812], [13.6908214, 42.8478079], [13.6912289, 42.8478565], [13.6915193, 42.8479751], [13.6918819, 42.8481582], [13.6921598, 42.8483539], [13.6923882, 42.8485426], [13.6926055, 42.8487452], [13.6929572, 42.8489468], [13.6934747, 42.8490336], [13.6939085, 42.8489865], [13.6943762, 42.8489021], [13.6946137, 42.8488473], [13.6947343, 42.8488243], [13.6953696, 42.8488117], [13.6960052, 42.8488036], [13.6966532, 42.8487567], [13.6972416, 42.8487708], [13.6976303, 42.8489348], [13.6978975, 42.8490296], [13.6982279, 42.8490701], [13.6986595, 42.8490748], [13.6991585, 42.8490791], [13.6996003, 42.8490564], [13.6999909, 42.8490448], [13.700348, 42.8489941], [13.7006142, 42.8489539], [13.7010945, 42.8489949], [13.7014624, 42.8490068], [13.7017667, 42.8489853], [13.702107, 42.8489555], [13.7022915, 42.8490087], [13.7024976, 42.8491442], [13.7027623, 42.8493269], [13.7030294, 42.8495005], [13.7032956, 42.8496223], [13.7035083, 42.8496428], [13.7036407, 42.8496554], [13.7040429, 42.8495938], [13.7043525, 42.849482], [13.7045978, 42.8493684], [13.7048813, 42.8492351], [13.7052269, 42.8491939], [13.70546, 42.8491618], [13.7056898, 42.8491276], [13.7063772, 42.849196], [13.7066022, 42.8493121], [13.7068586, 42.8495329], [13.7076242, 42.849785], [13.7081626, 42.8498258], [13.7093671, 42.8501477], [13.7102077, 42.8503717], [13.711401, 42.8506556], [13.7125733, 42.8507862], [13.7138665, 42.8509365], [13.7141836, 42.8509831], [13.7155009, 42.8512521], [13.715647, 42.8512806], [13.7162531, 42.8514978], [13.7169946, 42.8517629], [13.7178195, 42.8521508], [13.7180545, 42.852271], [13.7185946, 42.8525464], [13.7192841, 42.8529231], [13.7201425, 42.8534278], [13.7206004, 42.8537328], [13.7207111, 42.8538038], [13.7212061, 42.8541165], [13.7216157, 42.8543454], [13.7218703, 42.8544829], [13.7222146, 42.854651], [13.7224783, 42.8553536], [13.7236142, 42.8554664], [13.7243411, 42.8556164], [13.7248559, 42.8557223], [13.7259214, 42.8557536], [13.7266262, 42.8556458], [13.7275164, 42.8555087], [13.7284281, 42.8552684], [13.7290024, 42.855209], [13.7291504, 42.8551934], [13.7294117, 42.8552819], [13.7301238, 42.8555211], [13.7307424, 42.8557892], [13.7319897, 42.8558377], [13.7326358, 42.8557737], [13.7328854, 42.85575], [13.733525, 42.8556121], [13.7339198, 42.8555181], [13.7346066, 42.8553546], [13.734901, 42.8553158], [13.7353928, 42.8552545], [13.7364453, 42.855257], [13.7378602, 42.8555168], [13.7380815, 42.8555583], [13.7393223, 42.8557937], [13.7401697, 42.8558614], [13.7404823, 42.8558856], [13.7410358, 42.8558577], [13.7416745, 42.8558428], [13.7411457, 42.8564732], [13.741031, 42.8566535], [13.7409036, 42.8569064], [13.7407761, 42.8571187], [13.7405653, 42.8573616], [13.7402663, 42.857572], [13.7399571, 42.8577694], [13.7395458, 42.8580701], [13.739148, 42.8583882], [13.7386249, 42.858788], [13.7380691, 42.8590811], [13.7376584, 42.8593908], [13.737188, 42.8596804], [13.7364503, 42.8601138], [13.7358867, 42.8597861], [13.7356105, 42.8596557], [13.7346106, 42.8594226], [13.7345813, 42.8595994], [13.7345521, 42.8598167], [13.7345958, 42.860148], [13.7345749, 42.860554], [13.7345671, 42.8609324], [13.7344872, 42.8612463], [13.7343963, 42.8614977], [13.7343417, 42.8617835], [13.7343972, 42.8620288], [13.7345873, 42.862354], [13.7347282, 42.8626363], [13.7349632, 42.8630272], [13.7348594, 42.8633106], [13.7347657, 42.8637241], [13.7346574, 42.8642282], [13.7345633, 42.8646778], [13.73447, 42.865017], [13.7344459, 42.8651013], [13.7343521, 42.8655148], [13.7342441, 42.8659424], [13.734128, 42.8663839], [13.7341013, 42.866475], [13.7340353, 42.8666916], [13.7338824, 42.867013], [13.733629, 42.8669402], [13.7316054, 42.8663668], [13.7312771, 42.8662747], [13.730884, 42.8662954], [13.7305544, 42.866147], [13.7300045, 42.8660775], [13.7295325, 42.865908], [13.7290447, 42.8657707], [13.7286061, 42.8656763], [13.7285023, 42.8656401], [13.7283325, 42.8655796], [13.7281098, 42.8655078], [13.7276327, 42.8653114], [13.7272297, 42.8652831], [13.7268291, 42.8652051], [13.7266088, 42.8651647], [13.7263403, 42.8651353], [13.7259362, 42.8651318], [13.7254175, 42.8653513], [13.7253218, 42.8652607], [13.7250354, 42.8649958], [13.724684, 42.8647222], [13.7245207, 42.8646468], [13.7241256, 42.8644617], [13.7240121, 42.8644169], [13.7239426, 42.8643882], [13.7238473, 42.8643427], [13.7234048, 42.8642777], [13.7229281, 42.8644054], [13.7226368, 42.8642779], [13.7223474, 42.8640536], [13.72207, 42.8638265], [13.7218404, 42.8636649], [13.72177, 42.863625], [13.7215875, 42.8635178], [13.7214939, 42.8634946], [13.7212315, 42.8634245], [13.7210909, 42.8633853], [13.7207613, 42.8633561], [13.7204191, 42.8633635], [13.7203427, 42.8633644], [13.7202451, 42.8633684], [13.7200677, 42.8633285], [13.719749, 42.8632426], [13.7196118, 42.8632078], [13.719479, 42.8631525], [13.7191975, 42.8630314], [13.7187761, 42.8628012], [13.7182797, 42.8625516], [13.7178259, 42.8622575], [13.717507, 42.8620478], [13.7174276, 42.8620106], [13.7168614, 42.8616874], [13.7167774, 42.8616278], [13.7166933, 42.8615683], [13.7165122, 42.8614407], [13.7161122, 42.8612501], [13.7154592, 42.8611533], [13.7150124, 42.861192], [13.7146977, 42.861277], [13.7142921, 42.8611745], [13.7142097, 42.8611374], [13.7138997, 42.8610039], [13.7137956, 42.8609226], [13.713654, 42.8608108], [13.7135222, 42.8607066], [13.713105, 42.8604515], [13.7126555, 42.860335], [13.7120706, 42.8602465], [13.7119777, 42.8602324], [13.711683, 42.8601793], [13.7114442, 42.8601362], [13.7110319, 42.8600666], [13.7109606, 42.8600537], [13.71066, 42.8599626], [13.7102546, 42.8598218], [13.7095885, 42.8595521], [13.7092254, 42.8594051], [13.7089583, 42.8593125], [13.7085404, 42.8592082], [13.7081519, 42.8592085], [13.7078927, 42.8591786], [13.7071615, 42.859058], [13.706649, 42.8589981], [13.7066245, 42.8589973], [13.7061583, 42.8589823], [13.705984, 42.8589672], [13.7055609, 42.8589304], [13.7051339, 42.8589074], [13.7044532, 42.8588477], [13.7043434, 42.8588522], [13.7042368, 42.8588588], [13.7037309, 42.8588842], [13.7030896, 42.8588588], [13.7028603, 42.858821], [13.7021055, 42.8586315], [13.7018367, 42.858557], [13.7016158, 42.8585076], [13.7014463, 42.8584921], [13.7012831, 42.8584785], [13.7010029, 42.8585148], [13.7006058, 42.8585627], [13.7003673, 42.858505], [13.7001843, 42.8584315], [13.6999077, 42.8582538], [13.6995364, 42.858017], [13.6992962, 42.8579368], [13.6992308, 42.857962], [13.6991299, 42.8580022], [13.699132, 42.8582924], [13.699264, 42.8585999], [13.699541, 42.8588631], [13.6997294, 42.8591277], [13.6993423, 42.8592269], [13.6989327, 42.8591919], [13.6984089, 42.8591032], [13.698068, 42.8590452], [13.6975223, 42.8588696], [13.6972193, 42.858666], [13.696966, 42.8584738], [13.6966769, 42.8582921], [13.6963168, 42.8582642], [13.6959181, 42.8582918], [13.6954482, 42.8584282], [13.6950989, 42.8587036], [13.695119, 42.8589684], [13.6952465, 42.8592377], [13.6955222, 42.859564], [13.6956748, 42.8598818], [13.6956342, 42.8600726], [13.6953954, 42.860312], [13.6949875, 42.8605403], [13.6946057, 42.860709], [13.6939497, 42.8610151], [13.6935787, 42.8611654], [13.6930708, 42.8614473], [13.6923934, 42.8617542], [13.6916171, 42.8619257], [13.691036, 42.8621701], [13.690198, 42.8624566], [13.6893966, 42.8627011], [13.6888056, 42.8629369], [13.6881482, 42.8632655], [13.6876518, 42.863619], [13.6872141, 42.8640195], [13.6869014, 42.8643745], [13.6866747, 42.8646944], [13.686323, 42.8650599], [13.6860866, 42.8653307], [13.6858704, 42.8655872], [13.6855085, 42.8659801], [13.6851595, 42.8663006], [13.684798, 42.8665765], [13.6843503, 42.8668874], [13.6839627, 42.8673039], [13.6837608, 42.8676273], [13.6834836, 42.8679268], [13.6832302, 42.8682973], [13.6829554, 42.8685877], [13.6824833, 42.8688996], [13.6817299, 42.8692951], [13.6813473, 42.8693738], [13.6807061, 42.8695531], [13.6799543, 42.8698495], [13.6795852, 42.8699457], [13.6792036, 42.8700783], [13.6787457, 42.8702952], [13.6783865, 42.8703999], [13.6779462, 42.8704854], [13.6775537, 42.870515], [13.6770755, 42.8705841], [13.6767755, 42.8707044], [13.6765027, 42.8709002], [13.6763861, 42.8711795], [13.6763679, 42.8715044], [13.6763981, 42.8717822], [13.6766088, 42.8723431], [13.6763895, 42.8724376], [13.6763005, 42.872475], [13.6760012, 42.8726043], [13.6754332, 42.8728616], [13.6750649, 42.87305], [13.6749499, 42.8731064], [13.674553, 42.8734018], [13.6741801, 42.8736916], [13.673731, 42.8739846], [13.6731143, 42.8742056], [13.6723253, 42.8742942], [13.6717311, 42.8742059], [13.6711613, 42.8739546], [13.6705159, 42.8737965], [13.6698207, 42.8736673], [13.6692363, 42.8735472], [13.6686767, 42.8734305], [13.6680596, 42.8733634], [13.6673903, 42.8734156], [13.6668974, 42.8735347], [13.666051, 42.8736323], [13.665411, 42.873708], [13.6647975, 42.8738096], [13.664755, 42.8735299], [13.664724, 42.8732409], [13.6646942, 42.872927], [13.6645952, 42.8724269], [13.66442, 42.8720109], [13.6642173, 42.8717581], [13.6637465, 42.8714802], [13.6632964, 42.871395], [13.6629195, 42.8712664], [13.6626876, 42.8711543], [13.6627314, 42.8709229], [13.6627836, 42.8706417], [13.6628406, 42.8703828], [13.6628972, 42.8700384], [13.6629918, 42.8696294], [13.663023, 42.869232], [13.6629936, 42.8689631], [13.6628136, 42.8686868], [13.6626001, 42.8684524], [13.6623354, 42.8682697], [13.6621158, 42.8682381], [13.6613932, 42.8682316], [13.6604841, 42.8683092], [13.660176, 42.8684433], [13.6599024, 42.8691972], [13.6597285, 42.8692854], [13.6594546, 42.8694676], [13.6590895, 42.8699416], [13.6589406, 42.8701188], [13.6587288, 42.8703525], [13.6583084, 42.8705002], [13.6574585, 42.8706721], [13.6570248, 42.870683], [13.6566645, 42.8706527], [13.6559954, 42.8703829], [13.6555749, 42.8700804], [13.6551916, 42.8696639], [13.6550286, 42.8693284], [13.6547179, 42.8691025], [13.6545775, 42.8691487], [13.653862, 42.869439], [13.653663, 42.8696001], [13.6535236, 42.8698219], [13.6533714, 42.8700351], [13.6531608, 42.8702058], [13.652812, 42.8704901], [13.652452, 42.8706668], [13.6524109, 42.870853], [13.6524413, 42.8712164], [13.652391, 42.8717271], [13.6524041, 42.8723478], [13.6524184, 42.8727006], [13.6523509, 42.8729014], [13.6523009, 42.8730497], [13.6522106, 42.873355], [13.652042, 42.873758], [13.6519484, 42.8740994], [13.6519385, 42.874496], [13.6519685, 42.8748549], [13.6520105, 42.8752088], [13.6521145, 42.8755332], [13.6521846, 42.8757329], [13.6523082, 42.8761555], [13.6515594, 42.8767779], [13.651272, 42.8770259], [13.6508844, 42.876999], [13.6504652, 42.8770003], [13.6501662, 42.8771745], [13.6499912, 42.8774517], [13.649884, 42.8777757], [13.6495873, 42.8779003], [13.6493152, 42.8780667], [13.6492569, 42.8781051], [13.6488185, 42.8783854], [13.6486817, 42.8784728], [13.6481114, 42.8788246], [13.6473933, 42.879205], [13.6468725, 42.8795233], [13.6463503, 42.8799046], [13.6460121, 42.8802515], [13.6456751, 42.8804903], [13.6452304, 42.8806411], [13.6448855, 42.8806529], [13.6445729, 42.8805666], [13.644158, 42.8804619], [13.6438677, 42.8804265], [13.6434675, 42.880436], [13.643128, 42.880398], [13.6427624, 42.8803386], [13.6425576, 42.8803019], [13.6411032, 42.8796813], [13.6407328, 42.8796401], [13.6406777, 42.8796806], [13.6404729, 42.8798262], [13.640224, 42.8800771], [13.6400058, 42.8804326], [13.6399037, 42.8807023], [13.6397496, 42.8810957], [13.6395318, 42.8814557], [13.6393296, 42.8816575], [13.6390824, 42.8818701], [13.63889, 42.882202], [13.6388081, 42.8825789], [13.63879, 42.8828678], [13.6386976, 42.8832271], [13.638613, 42.8836492], [13.6386187, 42.8839281], [13.6387202, 42.8843426], [13.6387648, 42.8845704], [13.638722, 42.8848557], [13.6384574, 42.885123], [13.6382681, 42.8853738], [13.6381157, 42.8857491], [13.6381349, 42.8859644], [13.6378947, 42.8862712], [13.6377295, 42.886557], [13.6376001, 42.8869134], [13.6375573, 42.8872393], [13.6375225, 42.8875513], [13.637465, 42.8879677], [13.6373967, 42.8882811], [13.6373546, 42.8885349], [13.6373131, 42.8887572], [13.6372096, 42.889009], [13.6370817, 42.8892212], [13.6367833, 42.8895282], [13.6365516, 42.8896828], [13.6361326, 42.8895456], [13.6358413, 42.8894156], [13.6352676, 42.8893174], [13.634888, 42.889317], [13.6344256, 42.8892727], [13.6338142, 42.8891197], [13.6333786, 42.8888628], [13.6327247, 42.8885517], [13.6321448, 42.888492], [13.6317605, 42.8885098], [13.6315084, 42.8885358], [13.6313471, 42.8885491], [13.6309766, 42.888465], [13.6306875, 42.8882832], [13.630495, 42.8880839], [13.6302673, 42.8878636], [13.6298893, 42.8878024], [13.6295605, 42.8877032], [13.629209, 42.8875058], [13.6287731, 42.8872849], [13.6285223, 42.8870835], [13.6282932, 42.8869668], [13.6280136, 42.8867485], [13.6276513, 42.8864886], [13.627228, 42.8863122], [13.6269817, 42.8862929], [13.626661, 42.8864252], [13.6262683, 42.8865356], [13.6259239, 42.8865135], [13.625367, 42.886311], [13.6249781, 42.8861872], [13.6243772, 42.8861733], [13.6238627, 42.8862099], [13.6233574, 42.8863293], [13.6229889, 42.8864365], [13.6225466, 42.8864567], [13.6220881, 42.8861781], [13.6216526, 42.8859212], [13.6212282, 42.8857718], [13.6209483, 42.8856706], [13.6206771, 42.8855645], [13.6204221, 42.8856738], [13.6203686, 42.8857368], [13.6203114, 42.8857908], [13.6198714, 42.8862093], [13.6196681, 42.8865191], [13.6196471, 42.8868531], [13.6196261, 42.8872681], [13.6194207, 42.887632], [13.6192191, 42.8879642], [13.6190868, 42.8884467], [13.6190627, 42.8888619], [13.6190661, 42.8893569], [13.6190897, 42.8899186], [13.6190573, 42.8902215], [13.6187186, 42.8906044], [13.6182805, 42.8910497], [13.6180356, 42.8915413], [13.6177775, 42.8921414], [13.6175252, 42.8925342], [13.6173786, 42.8931118], [13.6173671, 42.8935715], [13.6173987, 42.8938313], [13.6168383, 42.894196], [13.6158791, 42.894919], [13.6156903, 42.8951787], [13.6153903, 42.8954655], [13.61491, 42.8955929], [13.6146387, 42.8956894], [13.6142272, 42.8959176], [13.6139784, 42.8961122], [13.6138305, 42.8962217], [13.6133851, 42.8963657], [13.6130402, 42.8964607], [13.6127301, 42.8966128], [13.6124193, 42.8967964], [13.6121339, 42.8969925], [13.6118008, 42.8971229], [13.6114804, 42.8972192], [13.6110916, 42.8972596], [13.6108636, 42.8972395], [13.6105856, 42.897289], [13.6102498, 42.8974646], [13.6099794, 42.8975341], [13.6097077, 42.8975855], [13.6094333, 42.8977227], [13.6093446, 42.8979288], [13.6093288, 42.8981275], [13.60929, 42.8982641], [13.6091739, 42.8984309], [13.6090008, 42.8985729], [13.6086537, 42.8987219], [13.6083715, 42.8988369], [13.6079477, 42.8990655], [13.607662, 42.8992166], [13.607181, 42.8994161], [13.6066123, 42.8996731], [13.6060832, 42.8997619], [13.6056172, 42.8997942], [13.6050724, 42.8999602], [13.6047274, 42.9001362], [13.6045274, 42.9003288], [13.6042037, 42.9005444], [13.6038004, 42.9005562], [13.6034408, 42.9007417], [13.603115, 42.9009709], [13.6028776, 42.9012371], [13.6026142, 42.9015223], [13.602394, 42.9019768], [13.6023161, 42.902205], [13.6023344, 42.9024924], [13.6024518, 42.9027533], [13.6025669, 42.9029827], [13.6025514, 42.9031859], [13.6025674, 42.9035229], [13.6027459, 42.9037407], [13.6028015, 42.9040356], [13.6027812, 42.9043785], [13.6027015, 42.9046653], [13.6025444, 42.9051038], [13.6025318, 42.9051809], [13.6024888, 42.9054662], [13.6024789, 42.9058267], [13.602471, 42.9062141], [13.6024235, 42.9066437], [13.6023535, 42.9071012], [13.602263, 42.9073254], [13.6019253, 42.9078882], [13.6017537, 42.9081742], [13.6015632, 42.908452], [13.6015194, 42.9087688], [13.6014248, 42.9091013], [13.6014805, 42.9093961], [13.6015926, 42.9098327], [13.601679, 42.9102929], [13.6016334, 42.9107494], [13.6015743, 42.9111884], [13.6014576, 42.9115127], [13.6011934, 42.911789], [13.6010298, 42.9118946], [13.6009411, 42.9121007], [13.6009591, 42.9123431], [13.600772, 42.9125847], [13.6005459, 42.9127964], [13.6003312, 42.9130391], [13.6001856, 42.9134681], [13.6001694, 42.9137028], [13.5999952, 42.9138719], [13.5997122, 42.9139778], [13.5994506, 42.9140829], [13.5991044, 42.9142859], [13.5990747, 42.9144627], [13.5991053, 42.914709], [13.5990752, 42.9149218], [13.5989757, 42.9150654], [13.5986727, 42.9153972], [13.5984246, 42.9156007], [13.5982358, 42.9157794], [13.598086, 42.9159475], [13.5978613, 42.916096], [13.5976752, 42.9162296], [13.5975214, 42.9164248], [13.5974571, 42.9165895], [13.597443, 42.9167296], [13.5973888, 42.9169478], [13.5972745, 42.917263], [13.5972313, 42.9173818], [13.5967457, 42.917811], [13.5965234, 42.91791], [13.596213, 42.9179765], [13.5959813, 42.9179903], [13.5957614, 42.9179992], [13.5954279, 42.9180846], [13.5951284, 42.9182992], [13.5948674, 42.9184538], [13.5945571, 42.9186868], [13.5941108, 42.9188623], [13.5937658, 42.9188762], [13.5934766, 42.9188181], [13.5931922, 42.9188227], [13.5928222, 42.9189547], [13.5926366, 42.9190116], [13.5924635, 42.9190726], [13.5922013, 42.9190877], [13.5918291, 42.9190238], [13.5914871, 42.9188733], [13.5912637, 42.9187112], [13.5909274, 42.9188418], [13.5904333, 42.9190327], [13.5899035, 42.9190337], [13.588952, 42.9188806], [13.5885236, 42.9188033], [13.5880268, 42.9186702], [13.587686, 42.9185758], [13.5870508, 42.9183943], [13.5868217, 42.9182774], [13.5865056, 42.9182271], [13.5862646, 42.9181985], [13.5858532, 42.9182263], [13.5854707, 42.9183947], [13.5851626, 42.9185354], [13.5849155, 42.9185475], [13.584638, 42.9184394], [13.5843207, 42.9183328], [13.5838769, 42.9182944], [13.5833869, 42.918377], [13.5827234, 42.9183902], [13.5821827, 42.9183263], [13.5817576, 42.9183749], [13.5812804, 42.9184233], [13.5808023, 42.9184177], [13.5803124, 42.9185026], [13.5797796, 42.918668], [13.5794354, 42.9188169], [13.5789363, 42.919107], [13.5785537, 42.9193159], [13.5781285, 42.9196525], [13.5776072, 42.9199728], [13.5773598, 42.920147], [13.5772929, 42.9201947], [13.5772647, 42.9204344], [13.5773163, 42.9214182], [13.577278, 42.9225541], [13.5774298, 42.9227416], [13.5777537, 42.9230617], [13.5779094, 42.9232625], [13.5780143, 42.9234789], [13.577938, 42.9237295], [13.5776454, 42.9240789], [13.5774567, 42.9243835], [13.5773004, 42.9247949], [13.5772935, 42.9250743], [13.5772368, 42.9253422], [13.5771797, 42.9256866], [13.5772841, 42.92602], [13.5776563, 42.9262482], [13.5779837, 42.9264511], [13.5781776, 42.9265874], [13.5783784, 42.926899], [13.5783227, 42.9271398], [13.5780954, 42.9273785], [13.5779445, 42.9276141], [13.5780864, 42.927793], [13.57823, 42.9279943], [13.577963, 42.9284416], [13.5777616, 42.9286163], [13.5776371, 42.9287968], [13.5775578, 42.9289665], [13.5775632, 42.9292454], [13.5775786, 42.9296589], [13.5774317, 42.9302388], [13.5771047, 42.9303306], [13.576354, 42.9302032], [13.576109, 42.9301635], [13.5757766, 42.9301408], [13.5752779, 42.9300662], [13.575009, 42.9299509], [13.5748559, 42.9297455], [13.5747062, 42.9293374], [13.5744479, 42.9289111], [13.5743321, 42.9285466], [13.5741831, 42.9281069], [13.5733185, 42.9278894], [13.5732217, 42.9283187], [13.5730008, 42.9284783], [13.5724852, 42.9283819], [13.5721705, 42.9282685], [13.5716823, 42.9282115], [13.5711921, 42.9281681], [13.570741, 42.9280736], [13.5702866, 42.928058], [13.5699795, 42.9281716], [13.5695974, 42.9281824], [13.569233, 42.9281002], [13.5689079, 42.9278048], [13.5688182, 42.9274618], [13.5686397, 42.9272439], [13.5683258, 42.9270583], [13.5680982, 42.9267973], [13.5678004, 42.9265392], [13.5674239, 42.9263359], [13.5673669, 42.926642], [13.5674722, 42.9268224], [13.5676917, 42.9270162], [13.5679034, 42.9272688], [13.5678264, 42.9274699], [13.5676142, 42.927582], [13.5673435, 42.9277323], [13.5670429, 42.9279334], [13.5666837, 42.9281278], [13.5663958, 42.928459], [13.5660251, 42.9285818], [13.5657776, 42.9286322], [13.5654692, 42.9286445], [13.5651841, 42.9284759], [13.5649492, 42.9285303], [13.564629, 42.9285071], [13.564411, 42.9284167], [13.564108, 42.9282128], [13.5637485, 42.927867], [13.563596, 42.927585], [13.5634643, 42.9273787], [13.5632955, 42.9272504], [13.5629592, 42.9270928], [13.562583, 42.9268512], [13.5620763, 42.926419], [13.5618293, 42.9261431], [13.5614781, 42.9259095], [13.5611169, 42.9256628], [13.5608879, 42.9254649], [13.5606746, 42.9251898], [13.5605207, 42.9248899], [13.5603307, 42.9246814], [13.560105, 42.9243618], [13.5599794, 42.9239481], [13.5598033, 42.9235951], [13.5593905, 42.9230241], [13.5587357, 42.923156], [13.5586843, 42.9227101], [13.5585618, 42.9226678], [13.55848, 42.9226395], [13.5582721, 42.9226028], [13.5579582, 42.9225816], [13.5574505, 42.9225906], [13.5569817, 42.9227128], [13.5567194, 42.9229348], [13.5565757, 42.9232287], [13.5564113, 42.9235323], [13.5562847, 42.923767], [13.5562323, 42.9238456], [13.5561201, 42.9240256], [13.5560755, 42.924293], [13.556069, 42.9245363], [13.5558594, 42.9246437], [13.5556247, 42.9247409], [13.555281, 42.9248153], [13.5548768, 42.9247752], [13.554658, 42.9246736], [13.5545899, 42.9244558], [13.5545944, 42.9241855], [13.5546487, 42.9240078], [13.5547533, 42.923765], [13.5548442, 42.9235858], [13.5549808, 42.9234453], [13.555106, 42.9232738], [13.5551219, 42.9230751], [13.5551298, 42.9228497], [13.5550517, 42.9224972], [13.5548956, 42.9222918], [13.5546845, 42.9219626], [13.5544579, 42.921589], [13.554269, 42.9213535], [13.5539889, 42.9211688], [13.5528929, 42.9221286], [13.5522269, 42.9227313], [13.5513771, 42.9234179], [13.5504087, 42.9240327], [13.5496689, 42.9247576], [13.548642, 42.9255751], [13.5481812, 42.9249339], [13.5476652, 42.924457], [13.5473547, 42.9241498], [13.5472309, 42.9237586], [13.5471705, 42.9236034], [13.5470327, 42.9232713], [13.5469251, 42.9231], [13.5466231, 42.92295], [13.5462331, 42.9227638], [13.5462184, 42.9227568], [13.5461374, 42.9227172], [13.5456294, 42.9224314], [13.5452782, 42.9222383], [13.5449282, 42.9220181], [13.5446428, 42.9217188], [13.5443073, 42.9213631], [13.543837, 42.9210487], [13.5434227, 42.9209121], [13.5426175, 42.9207911], [13.5420861, 42.9207694], [13.541503, 42.9207949], [13.5409345, 42.9209345], [13.5402232, 42.9210483], [13.5398179, 42.9211184], [13.5393259, 42.921174], [13.5385038, 42.9211976], [13.5375815, 42.9213153], [13.5375415, 42.9214384], [13.5373312, 42.922077], [13.5371694, 42.9227497], [13.5371256, 42.923071], [13.5370935, 42.9233424], [13.5361883, 42.9241931], [13.5356421, 42.9246379], [13.5360167, 42.9247761], [13.5361915, 42.9252779], [13.5359541, 42.9253818], [13.5355477, 42.9255195], [13.5349937, 42.9256495], [13.5345472, 42.9257843], [13.5341282, 42.9259585], [13.5335937, 42.92627], [13.5333103, 42.9263736], [13.5329789, 42.9263237], [13.5323117, 42.9260801], [13.5318838, 42.9259665], [13.5314137, 42.9257376], [13.5312942, 42.9255915], [13.5311762, 42.9253396], [13.531061, 42.9250223], [13.5309465, 42.9246307], [13.5306392, 42.9242423], [13.5302894, 42.923941], [13.5297426, 42.9237511], [13.5292714, 42.9235492], [13.5289698, 42.9232371], [13.5288662, 42.9229936], [13.5287125, 42.9228196], [13.5282741, 42.9226885], [13.5277997, 42.9225677], [13.5275941, 42.9224363], [13.5273657, 42.9221618], [13.5271122, 42.9220458], [13.5267069, 42.9220326], [13.5262623, 42.922066], [13.5257299, 42.9219903], [13.5255643, 42.9217785], [13.5253865, 42.9215245], [13.5251319, 42.921269], [13.5248673, 42.9210859], [13.5246807, 42.9207962], [13.5246247, 42.9205328], [13.5245705, 42.9203369], [13.5244986, 42.9201912], [13.5243209, 42.9199821], [13.524142, 42.9197551], [13.5240478, 42.9195563], [13.5240027, 42.9194005], [13.5238879, 42.9191305], [13.5237784, 42.9189728], [13.5235877, 42.9188363], [13.5232356, 42.9186701], [13.5231193, 42.9184632], [13.5230513, 42.9182453], [13.5229706, 42.9180639], [13.5228024, 42.9178995], [13.5225091, 42.9178256], [13.5221813, 42.9177395], [13.5219501, 42.9176361], [13.5218171, 42.9174929], [13.5217043, 42.9171642], [13.5215227, 42.9170274], [13.5213327, 42.9167738], [13.5212129, 42.9166435], [13.5210324, 42.9164796], [13.5208905, 42.9163816], [13.5206947, 42.9162588], [13.5204925, 42.9161318], [13.5203585, 42.915975], [13.5201235, 42.9156512], [13.5200057, 42.9154218], [13.5199014, 42.9151693], [13.5197976, 42.9148809], [13.5197073, 42.9146098], [13.5196029, 42.9143124], [13.5194516, 42.9140032], [13.5193113, 42.9136757], [13.5191955, 42.9134327], [13.5190434, 42.9131956], [13.5188375, 42.9130597], [13.5186199, 42.9129738], [13.5184406, 42.9127828], [13.5183342, 42.9125844], [13.5181701, 42.9122668], [13.5178015, 42.9117907], [13.5173212, 42.9114631], [13.5172731, 42.9113074], [13.5171029, 42.910864], [13.5169727, 42.9105496], [13.5167833, 42.910305], [13.5165443, 42.9100938], [13.5163553, 42.9098537], [13.5162145, 42.9096027], [13.5161334, 42.9093313], [13.5158505, 42.9088968], [13.5157943, 42.9087145], [13.5157611, 42.9085537], [13.5157265, 42.9084156], [13.5156811, 42.9082553], [13.5155275, 42.9080813], [13.5154078, 42.907951], [13.5152776, 42.9077626], [13.5152317, 42.9075528], [13.5152878, 42.907357], [13.5153032, 42.9071493], [13.515214, 42.9068513], [13.5150615, 42.9065242], [13.5149372, 42.9061645], [13.5147618, 42.9057753], [13.5146698, 42.9055223], [13.5145909, 42.9051968], [13.5145155, 42.9048352], [13.5144754, 42.9044541], [13.514409, 42.9041326], [13.5143922, 42.9037777], [13.5143257, 42.9035372], [13.5140852, 42.9032631], [13.5138604, 42.9029524], [13.5137494, 42.9025651], [13.5137945, 42.9021762], [13.5138839, 42.9019341], [13.5139533, 42.9017108], [13.5137834, 42.9015645], [13.5135197, 42.9013903], [13.5130952, 42.9011955], [13.5127081, 42.9009677], [13.5124687, 42.9007926], [13.5121704, 42.9004803], [13.5119181, 42.9001706], [13.5117561, 42.8998799], [13.5116386, 42.899655], [13.5113348, 42.8994779], [13.5110104, 42.8992701], [13.5109327, 42.8991697], [13.5108783, 42.8990953], [13.5108103, 42.8990035], [13.5107774, 42.8987617], [13.5107969, 42.8985268], [13.510815, 42.898229], [13.5106158, 42.8978497], [13.5105136, 42.8974981], [13.5105064, 42.8972733], [13.5106011, 42.896977], [13.5107165, 42.8966708], [13.5110197, 42.8963798], [13.5112714, 42.8960952], [13.5114492, 42.8957641], [13.5115048, 42.8955188], [13.5119065, 42.8951924], [13.5120811, 42.8949424], [13.512067, 42.8945828], [13.5118773, 42.8942482], [13.5117142, 42.8939845], [13.5115844, 42.8936746], [13.5113979, 42.8933848], [13.5111815, 42.8931458], [13.5111317, 42.8930937], [13.5110022, 42.8929548], [13.510699, 42.8928272], [13.5103095, 42.8927751], [13.5099674, 42.8927435], [13.5096014, 42.892677], [13.509335, 42.8925929], [13.5091267, 42.8925066], [13.5089121, 42.892335], [13.5089191, 42.8922627], [13.508942, 42.8920728], [13.5090828, 42.8917791], [13.5092859, 42.891501], [13.5094233, 42.8913695], [13.5095896, 42.8911739], [13.5101683, 42.8904218], [13.5103807, 42.8903121], [13.5108208, 42.8903443], [13.5111842, 42.890375], [13.5114931, 42.8903718], [13.5117769, 42.8903178], [13.5120871, 42.8902065], [13.5124682, 42.8901014], [13.5127247, 42.8900508], [13.5130582, 42.8899656], [13.513429, 42.8898451], [13.513662, 42.8897662], [13.5139097, 42.8897631], [13.514225, 42.8898475], [13.5146131, 42.8900482], [13.5149506, 42.8902262], [13.5155486, 42.8903668], [13.5157208, 42.890252], [13.5158251, 42.8900453], [13.515879, 42.8899036], [13.516069, 42.889572], [13.5162081, 42.8894225], [13.5164913, 42.8892357], [13.5168486, 42.8891405], [13.5173441, 42.8889679], [13.5176997, 42.8888908], [13.5179614, 42.8887859], [13.518095, 42.8886467], [13.5181757, 42.8885771], [13.5182162, 42.8882942], [13.5183467, 42.8880279], [13.5185532, 42.8875876], [13.5186692, 42.8872904], [13.5188557, 42.8871615], [13.5192419, 42.8870855], [13.5194571, 42.8872233], [13.5197952, 42.8873269], [13.5200731, 42.8874015], [13.5204058, 42.8873883], [13.5205932, 42.8872728], [13.5208442, 42.8871054], [13.5210735, 42.8870175], [13.5213587, 42.887067], [13.5216979, 42.8871436], [13.5221123, 42.8872848], [13.5223037, 42.8873492], [13.5224038, 42.887379], [13.5227475, 42.8873902], [13.522943, 42.8873014], [13.52322, 42.8870293], [13.5234213, 42.8867693], [13.5236965, 42.8865558], [13.5240336, 42.8863534], [13.5244306, 42.8860901], [13.5248018, 42.8858503], [13.52514, 42.8856208], [13.5254271, 42.8853619], [13.5256549, 42.8850873], [13.525834, 42.8847741], [13.5260131, 42.8844609], [13.5260584, 42.884369], [13.5262034, 42.8840932], [13.5264175, 42.8838821], [13.5267503, 42.8837879], [13.5270628, 42.8837913], [13.527363, 42.8837952], [13.5275744, 42.883672], [13.527664, 42.8835176], [13.5276563, 42.8833289], [13.5277346, 42.8830602], [13.5278758, 42.8828565], [13.5281965, 42.8827223], [13.52859, 42.8826212], [13.5288991, 42.8825369], [13.5291098, 42.8824475], [13.5293706, 42.8822886], [13.5295342, 42.882057], [13.5296379, 42.8817603], [13.5298287, 42.8814827], [13.5300295, 42.8812991], [13.5302143, 42.8812738], [13.5303989, 42.8812035], [13.5306867, 42.8809535], [13.5306165, 42.8807897], [13.5304624, 42.8805662], [13.5302973, 42.8804017], [13.5302254, 42.880256], [13.5303512, 42.8800935], [13.5305159, 42.8799609], [13.5307278, 42.8798039], [13.5309744, 42.8796186], [13.531127, 42.879446], [13.5312923, 42.8791964], [13.5314195, 42.8790112], [13.5316403, 42.8783903], [13.5317333, 42.878157], [13.5319726, 42.8778729], [13.532337, 42.8778337], [13.5327066, 42.8778663], [13.5331207, 42.8779624], [13.5335368, 42.8780022], [13.5337805, 42.8780285], [13.5339771, 42.8779555], [13.5341787, 42.8778664], [13.5344456, 42.8778333], [13.5346922, 42.877774], [13.534991, 42.8775506], [13.5350955, 42.8773484], [13.5350142, 42.877158], [13.5349126, 42.877108], [13.534748, 42.8770335], [13.5344435, 42.8768881], [13.5343105, 42.8767853], [13.5340476, 42.8765392], [13.5339947, 42.8762352], [13.5338283, 42.8760527], [13.5335508, 42.8758566], [13.5332384, 42.8756034], [13.5329512, 42.8753177], [13.5328594, 42.8751098], [13.5329253, 42.8747561], [13.5329975, 42.8746137], [13.5330937, 42.874423], [13.5332333, 42.8742824], [13.5335399, 42.8742905], [13.5338778, 42.8744324], [13.5340551, 42.8745132], [13.5342755, 42.8744729], [13.5345017, 42.8744279], [13.5350325, 42.8744046], [13.5366919, 42.8746651], [13.5370368, 42.8745276], [13.5373526, 42.874452], [13.5376287, 42.8744613], [13.538017, 42.8744572], [13.5383327, 42.8745054], [13.5386638, 42.8745553], [13.5390156, 42.8745953], [13.5393771, 42.874851], [13.5395723, 42.8748838], [13.5397763, 42.8749117], [13.5402546, 42.8748814], [13.5405646, 42.8748939], [13.5409205, 42.8749067], [13.5412723, 42.8749468], [13.5415285, 42.8749771], [13.5419193, 42.8750471], [13.5421391, 42.8751239], [13.5422895, 42.8752124], [13.5427526, 42.8755181], [13.5429037, 42.8754086], [13.5431488, 42.8752458], [13.5423403, 42.874821], [13.5418624, 42.8743989], [13.5416391, 42.8744415], [13.5414546, 42.8745119], [13.5412664, 42.8745329], [13.5410385, 42.8744721], [13.5405888, 42.8743077], [13.5401912, 42.8741434], [13.5398271, 42.8739779], [13.5395234, 42.8739269], [13.5390728, 42.8738323], [13.5387693, 42.8737003], [13.5385401, 42.8735383], [13.5383496, 42.8732353], [13.5381391, 42.8729105], [13.5380952, 42.8726467], [13.5381252, 42.8723889], [13.5382095, 42.8719939], [13.5383652, 42.8716141], [13.5384438, 42.8713094], [13.5383259, 42.8711205], [13.5381379, 42.8708939], [13.5379039, 42.8705205], [13.537841, 42.8703925], [13.537911, 42.8701376], [13.5382203, 42.8699745], [13.5388274, 42.8696151], [13.5390644, 42.8694256], [13.539353, 42.869189], [13.5395901, 42.868959], [13.5397582, 42.8686237], [13.5396919, 42.8682212], [13.5394696, 42.8679015], [13.5392826, 42.8675217], [13.5391667, 42.8671527], [13.5391845, 42.8669359], [13.5393382, 42.8666958], [13.5395612, 42.8665248], [13.5399549, 42.8664687], [13.5402374, 42.8663989], [13.5405227, 42.8662841], [13.540796, 42.8660886], [13.5408861, 42.865941], [13.5408879, 42.8658824], [13.5408916, 42.8657247], [13.5407703, 42.8656147], [13.5403174, 42.8656552], [13.5400487, 42.8657042], [13.539754, 42.8656911], [13.5395236, 42.865554], [13.5393821, 42.8653345], [13.5394515, 42.8650302], [13.5395286, 42.8647885], [13.5396077, 42.8645738], [13.5395637, 42.864391], [13.5393709, 42.8641826], [13.5392202, 42.8639635], [13.5391506, 42.8636827], [13.5391577, 42.8634033], [13.5393958, 42.8631462], [13.539635, 42.8628621], [13.5397879, 42.862694], [13.5398641, 42.8625649], [13.5396454, 42.8624206], [13.5391115, 42.8623157], [13.5393984, 42.8620568], [13.5395002, 42.8618591], [13.539504, 42.8616609], [13.539373, 42.8615446], [13.5391432, 42.8614142], [13.5388742, 42.8613753], [13.5385466, 42.8613726], [13.5387121, 42.8610847], [13.5392714, 42.8607023], [13.5396445, 42.8604489], [13.5399455, 42.8600903], [13.5402433, 42.8599795], [13.5405039, 42.8598206], [13.5406807, 42.8595615], [13.5407365, 42.8594234], [13.5407454, 42.8594013], [13.5405427, 42.8591821], [13.540311, 42.8591935], [13.5400491, 42.8593345], [13.5397388, 42.8595674], [13.5395462, 42.859611], [13.5392378, 42.8595355], [13.5389689, 42.8595394], [13.5386977, 42.8595547], [13.5384878, 42.8596126], [13.5381651, 42.859801], [13.5379927, 42.8598708], [13.5376731, 42.8598925], [13.537351, 42.8595474], [13.537147, 42.8594362], [13.5369281, 42.8592874], [13.5366651, 42.8591223], [13.5363364, 42.8589373], [13.5360364, 42.8588096], [13.5357585, 42.8586496], [13.5354575, 42.8585512], [13.5351899, 42.8585731], [13.5347818, 42.858515], [13.5342451, 42.858372], [13.5337722, 42.8582648], [13.5334054, 42.8581443], [13.5329345, 42.8579379], [13.532532, 42.8578728], [13.5320451, 42.8577841], [13.5317159, 42.8577161], [13.5312413, 42.8575864], [13.5311557, 42.8575448], [13.5307935, 42.8573611], [13.5304686, 42.8571444], [13.5300585, 42.8569761], [13.5296527, 42.8569066], [13.5292644, 42.856868], [13.5288605, 42.8568255], [13.5285836, 42.8566789], [13.5282575, 42.8564037], [13.5279125, 42.8561203], [13.5277444, 42.8560392], [13.5272994, 42.8560613], [13.5270873, 42.85609], [13.5267751, 42.8559628], [13.5263676, 42.8555783], [13.5261507, 42.8554564], [13.5258255, 42.8552352], [13.5254289, 42.8549988], [13.524855, 42.854891], [13.524576, 42.8547985], [13.524174, 42.8546568], [13.5239445, 42.8545714], [13.5237529, 42.8543359], [13.5236609, 42.8540829], [13.5239263, 42.8537798], [13.5239937, 42.8535296], [13.5239146, 42.8532851], [13.5234691, 42.8529651], [13.5230577, 42.8527789], [13.5225243, 42.8525119], [13.5219928, 42.8522718], [13.5215332, 42.8520109], [13.5212203, 42.8518725], [13.5210969, 42.8518166], [13.520541, 42.8515775], [13.5201663, 42.8513898], [13.5198155, 42.8511516], [13.5194404, 42.8509593], [13.5190056, 42.8506186], [13.5182806, 42.8513293], [13.5180223, 42.8514791], [13.5177739, 42.8516374], [13.5174871, 42.8518153], [13.5171167, 42.851938], [13.5166487, 42.8520646], [13.5163514, 42.8522249], [13.5159799, 42.8524151], [13.5156946, 42.8525299], [13.5152248, 42.852715], [13.5150018, 42.8528454], [13.5145452, 42.853003], [13.5142728, 42.8531263], [13.5135694, 42.8533386], [13.5130299, 42.85345], [13.512769, 42.8535638], [13.51241, 42.8537581], [13.511973, 42.8540589], [13.5115917, 42.8542405], [13.5113542, 42.854466], [13.5111654, 42.854604], [13.51115, 42.8548117], [13.5111317, 42.8549812], [13.5099599, 42.8546021], [13.5094413, 42.8548318], [13.5091699, 42.8546332], [13.509306, 42.8545288], [13.5095071, 42.8543498], [13.509659, 42.8542088], [13.5097831, 42.8540643], [13.5098119, 42.8539147], [13.5096955, 42.8537032], [13.5093595, 42.8535836], [13.5090592, 42.8536608], [13.5087239, 42.8538451], [13.5085871, 42.8539405], [13.5082773, 42.8540562], [13.507779, 42.8541029], [13.5074807, 42.8540809], [13.5068911, 42.854219], [13.5065709, 42.8543576], [13.5062829, 42.8545626], [13.5059992, 42.8546998], [13.5056671, 42.8547602], [13.5053222, 42.8547715], [13.5048515, 42.8546505], [13.5044731, 42.8544539], [13.504102, 42.8541894], [13.5037896, 42.8539316], [13.5036489, 42.8536806], [13.5035482, 42.8533469], [13.5036095, 42.8530542], [13.5037151, 42.8529082], [13.5038909, 42.8528022], [13.5013232, 42.8511478], [13.5007107, 42.8511382], [13.5004779, 42.8511766], [13.5001453, 42.8512302], [13.4997051, 42.851234], [13.4992666, 42.8512198], [13.4987516, 42.8512041], [13.4982144, 42.8510947], [13.4978386, 42.8509744], [13.49744, 42.8507515], [13.497091, 42.8504952], [13.4968759, 42.8503146], [13.4967112, 42.850069], [13.4965843, 42.8497949], [13.4964311, 42.8495398], [13.4961406, 42.8493306], [13.4957316, 42.8490901], [13.4953584, 42.8488798], [13.4949195, 42.8487755], [13.4947509, 42.8486863], [13.4945314, 42.8485702], [13.4942437, 42.8483159], [13.4940664, 42.8481068], [13.4939587, 42.8479715], [13.4937941, 42.8477259], [13.4936649, 42.8475059], [13.4936497, 42.8475047], [13.4932495, 42.8474727], [13.4929638, 42.8476235], [13.4927042, 42.8477552], [13.4925176, 42.8479246], [13.4923649, 42.8481377], [13.4923718, 42.8483175], [13.4925984, 42.8485742], [13.4925166, 42.848879], [13.4920146, 42.8489167], [13.4915903, 42.8488029], [13.4909372, 42.8484864], [13.4905888, 42.8483651], [13.4905103, 42.8483366], [13.4902278, 42.8484062], [13.4899, 42.8485249], [13.4896748, 42.8485], [13.4894019, 42.8481956], [13.4890429, 42.8478856], [13.4891074, 42.8478471], [13.4892538, 42.8477558], [13.4893679, 42.8475577], [13.4892296, 42.847212], [13.4889418, 42.8469127], [13.4888037, 42.8466121], [13.4888483, 42.8462997], [13.4888463, 42.8458496], [13.4886716, 42.8455504], [13.4883872, 42.8451294], [13.4883823, 42.8448505], [13.4888033, 42.8446674], [13.4891278, 42.8443755], [13.4892612, 42.8439381], [13.4893699, 42.8434972], [13.4894562, 42.8429581], [13.4895782, 42.8424897], [13.4898096, 42.8419269], [13.4899935, 42.8415528], [13.4900175, 42.8415046], [13.4902441, 42.8412121], [13.4903785, 42.8407881], [13.4905799, 42.8404876], [13.4907928, 42.8403442], [13.4910278, 42.8401684], [13.4911432, 42.8399883], [13.491292, 42.8398474], [13.4914904, 42.8397586], [13.4916766, 42.8397108], [13.4920709, 42.8396232], [13.4924529, 42.8394507], [13.4929402, 42.8390849], [13.4930419, 42.8388423], [13.4931369, 42.8385505], [13.4933123, 42.8383545], [13.4934257, 42.8381475], [13.4935439, 42.8379222], [13.4936825, 42.8376827], [13.4937615, 42.837423], [13.4937321, 42.8371856], [13.4935308, 42.8369414], [13.4934284, 42.8366258], [13.4933979, 42.8362894], [13.493415, 42.8361042], [13.4934224, 42.8358698], [13.4933771, 42.835624], [13.4933839, 42.8353806], [13.4934114, 42.835213], [13.4934899, 42.8350298], [13.4936043, 42.8348363], [13.493719, 42.8346472], [13.4939096, 42.8344506], [13.494009, 42.8343027], [13.4942729, 42.8340627], [13.4948448, 42.8337251], [13.4950064, 42.8335927], [13.4952928, 42.8333249], [13.4955306, 42.8331039], [13.4957936, 42.832936], [13.4961541, 42.8326788], [13.4963414, 42.8324778], [13.4965559, 42.8321903], [13.4967022, 42.8317614], [13.4968795, 42.8314663], [13.4969379, 42.8311759], [13.4969055, 42.8308981], [13.49679, 42.830655], [13.4966119, 42.8303919], [13.4964747, 42.8300192], [13.4964099, 42.8296751], [13.4963681, 42.8294249], [13.4963666, 42.8294157], [13.4964133, 42.8290898], [13.4965514, 42.8288863], [13.4967516, 42.8286533], [13.4969326, 42.8283671], [13.4969522, 42.8280467], [13.496996, 42.8277659], [13.4969579, 42.8273262], [13.4969252, 42.8270439], [13.4969805, 42.8267942], [13.4971726, 42.8265345], [13.4974114, 42.8262865], [13.497609, 42.8261437], [13.4979187, 42.8259875], [13.4981782, 42.8258557], [13.4984645, 42.8257139], [13.4987134, 42.8255195], [13.4990373, 42.8252637], [13.4989812, 42.8252074], [13.4988565, 42.8250908], [13.4983476, 42.8249037], [13.4978255, 42.8247892], [13.4973863, 42.8247615], [13.4966883, 42.8247079], [13.4960923, 42.8246278], [13.4955304, 42.8245959], [13.4950666, 42.8245241], [13.4950504, 42.8247229], [13.4951773, 42.824997], [13.4953532, 42.8253142], [13.4954807, 42.8256378], [13.4954508, 42.8259], [13.4953816, 42.8261683], [13.4952789, 42.826438], [13.4948706, 42.8265846], [13.4943834, 42.8264867], [13.4938974, 42.8263213], [13.4934107, 42.8261873], [13.4928358, 42.8261874], [13.4923439, 42.8263193], [13.4917071, 42.8263083], [13.491172, 42.8262663], [13.4907095, 42.826172], [13.4903278, 42.8262635], [13.4895906, 42.8264275], [13.4888652, 42.8264605], [13.4882927, 42.8264515], [13.4878943, 42.8263546], [13.4878039, 42.8263312], [13.4870771, 42.8260491], [13.4865958, 42.8258204], [13.4861146, 42.8254251], [13.4854749, 42.8251216], [13.4848449, 42.8248673], [13.4843241, 42.8245996], [13.4838771, 42.8244236], [13.4835961, 42.8243851], [13.4830999, 42.8251338], [13.482932, 42.8249693], [13.4826274, 42.8249003], [13.4823321, 42.8249614], [13.482051, 42.8250489], [13.4817788, 42.8251316], [13.4815725, 42.8251127], [13.481367, 42.8249767], [13.4811751, 42.8248177], [13.4809215, 42.824652], [13.4804234, 42.824487], [13.4800226, 42.8243992], [13.4796705, 42.82435], [13.4791094, 42.8242864], [13.4786638, 42.8244254], [13.4782579, 42.8245629], [13.4780462, 42.8246792], [13.4778378, 42.8246739], [13.4776292, 42.8246641], [13.4773282, 42.8245183], [13.4771734, 42.8244073], [13.4768474, 42.824213], [13.4758765, 42.825417], [13.4758201, 42.8256938], [13.4757645, 42.8258985], [13.4756642, 42.826033], [13.4753162, 42.8262537], [13.4750438, 42.8263769], [13.474664, 42.8264098], [13.4743711, 42.8263762], [13.474152, 42.8263488], [13.4740349, 42.8266325], [13.474064, 42.826951], [13.4740955, 42.8271748], [13.4740417, 42.8273615], [13.4736815, 42.8275827], [13.4734377, 42.8275517], [13.4732158, 42.8275694], [13.4730503, 42.8278189], [13.4729455, 42.8281877], [13.4727392, 42.8285064], [13.472579, 42.8285757], [13.4723806, 42.8286645], [13.4719083, 42.8289845], [13.4716503, 42.8290532], [13.4714756, 42.829132], [13.4710847, 42.8292238], [13.4708824, 42.8294298], [13.4706399, 42.82984], [13.4701953, 42.8300779], [13.4694823, 42.8301553], [13.4689949, 42.8300979], [13.4688516, 42.830018], [13.4687305, 42.8299507], [13.4681847, 42.8296344], [13.4677728, 42.8295199], [13.4672882, 42.8293723], [13.4667897, 42.8292027], [13.4663664, 42.8289717], [13.4660204, 42.8286701], [13.465771, 42.8283062], [13.4655252, 42.8279512], [13.4652504, 42.8276603], [13.4649476, 42.8274471], [13.4645726, 42.8273357], [13.4642464, 42.8272224], [13.4639388, 42.8268158], [13.4636778, 42.8264613], [13.4634315, 42.8259713], [13.4633294, 42.8256151], [13.463258, 42.8251768], [13.4632782, 42.8247348], [13.4633243, 42.8243999], [13.4633547, 42.8241421], [13.4630204, 42.8238311], [13.4622189, 42.8235292], [13.4617474, 42.8233091], [13.4613602, 42.8232387], [13.4612201, 42.8233747], [13.4605443, 42.8239683], [13.4589132, 42.8235457]]]]}}